[Satellite]
VERSION=1.1
NAME=GEO-KOMPSAT-2A
NICKNAME=GEO-KOMPSAT-2A
TLE1=1 43823U 18100A   20157.76010786 -.00000350  00000-0  00000+0 0  9998
TLE2=2 43823   0.0354 140.8392 0002234 292.7418 222.9387  1.00272805  5570
STATUS=0
